NORAD_CAT_ID,OBJECT_NAME,OBJECT_TYPE,EPOCH,MEAN_MOTION,ECCENTRICITY,INCLINATION,RA_OF_ASC_NODE,ARG_OF_PERICENTER,MEAN_ANOMALY,BSTAR,MEAN_MOTION_DOT,MEAN_MOTION_DDOT,TLE_LINE0,TLE_LINE1,TLE_LINE2,SEMIMAJOR_AXIS,PERIOD,APOGEE,PERIGEE,DECAYED
53858.0,STARLINK-4798,PAYLOAD,2023-07-03 18:20:22,15.08848621,0.0001085,53.2177,3.372,95.4117,264.6999,0.00012632,1.724e-05,0.0,0 STARLINK-4798,1 53858U 22114AS  23184.76414664  .00001724  00000-0  12632-3 0  9996,2 53858  53.2177   3.3720 0001085  95.4117 264.6999 15.08848621 44637,6917.854,95.437,540.47,538.968,0.0
53858.0,STARLINK-4798,PAYLOAD,2023-07-04 11:49:37,15.08836208,0.0001041,53.2169,0.1001,90.7846,269.3266,0.00010054,1.313e-05,0.0,0 STARLINK-4798,1 53858U 22114AS  23185.49279390  .00001313  00000-0  10054-3 0  9992,2 53858  53.2169   0.1001 0001041  90.7846 269.3266 15.08836208 44743,6917.892,95.438,540.477,539.037,0.0
53858.0,STARLINK-4798,PAYLOAD,2023-07-04 21:21:55,15.088469,0.0001098,53.2175,358.3167,90.9073,269.2045,0.00013947,1.933e-05,0.0,0 STARLINK-4798,1 53858U 22114AS  23185.89022877  .00001933  00000-0  13947-3 0  9994,2 53858  53.2175 358.3167 0001098  90.9073 269.2045 15.08846900 44808,6917.859,95.437,540.484,538.965,0.0
53858.0,STARLINK-4798,PAYLOAD,2023-07-05 18:01:57,15.0883797,0.0001097,53.2174,354.4517,86.3707,273.7411,1.5526e-05,-4.1e-07,0.0,0 STARLINK-4798,1 53858U 22114AS  23186.75135503 -.00000041  00000-0  15526-4 0  9997,2 53858  53.2174 354.4517 0001097  86.3707 273.7411 15.08837970 44933,6917.887,95.438,540.51,538.993,0.0
53858.0,STARLINK-4798,PAYLOAD,2023-07-07 03:25:03,15.08837318,0.0001395,53.2185,348.2063,85.9047,274.2104,4.7215e-05,4.64e-06,0.0,0 STARLINK-4798,1 53858U 22114AS  23188.14239717  .00000464  00000-0  47215-4 0  9992,2 53858  53.2185 348.2063 0001395  85.9047 274.2104 15.08837318 45140,6917.889,95.438,540.719,538.789,0.0
53858.0,STARLINK-4798,PAYLOAD,2023-07-07 17:43:30,15.08846825,0.0001028,53.2175,345.5312,94.2577,265.8533,0.00019898,2.881e-05,0.0,0 STARLINK-4798,1 53858U 22114AS  23188.73855237  .00002881  00000-0  19898-3 0  9998,2 53858  53.2175 345.5312 0001028  94.2577 265.8533 15.08846825 45235,6917.86,95.437,540.436,539.013,0.0
53858.0,STARLINK-4798,PAYLOAD,2023-07-08 09:37:22,15.08843641,0.0001017,53.2174,342.5574,99.542,260.5687,0.00011664,1.569e-05,0.0,0 STARLINK-4798,1 53858U 22114AS  23189.40095271  .00001569  00000-0  11664-3 0  9992,2 53858  53.2174 342.5574 0001017  99.5420 260.5687 15.08843641 45330,6917.869,95.437,540.438,539.031,0.0
53858.0,STARLINK-4798,PAYLOAD,2023-07-09 03:06:37,15.08837117,0.000119,53.2168,339.2854,97.8024,262.3104,5.444e-05,5.79e-06,0.0,0 STARLINK-4798,1 53858U 22114AS  23190.12959512  .00000579  00000-0  54440-4 0  9990,2 53858  53.2168 339.2854 0001190  97.8024 262.3104 15.08837117 45447,6917.889,95.438,540.577,538.931,0.0
53858.0,STARLINK-4798,PAYLOAD,2023-07-09 19:00:28,15.08845193,0.0001186,53.2172,336.3119,101.9874,258.1251,0.00011661,1.569e-05,0.0,0 STARLINK-4798,1 53858U 22114AS  23190.79199217  .00001569  00000-0  11661-3 0  9998,2 53858  53.2172 336.3119 0001186 101.9874 258.1251 15.08845193 45549,6917.865,95.437,540.55,538.909,0.0
53858.0,STARLINK-4798,PAYLOAD,2023-07-10 18:51:15,15.0884051,0.0001017,53.217,331.8509,90.2385,269.8724,9.0252e-05,1.149e-05,0.0,0 STARLINK-4798,1 53858U 22114AS  23191.78559739  .00001149  00000-0  90252-4 0  9995,2 53858  53.2170 331.8509 0001017  90.2385 269.8724 15.08840510 45698,6917.879,95.438,540.447,539.04,0.0
53858.0,STARLINK-4798,PAYLOAD,2023-07-12 02:38:57,15.08855045,9.82e-05,53.2179,325.9029,91.7528,268.3576,0.00027757,4.134e-05,0.0,0 STARLINK-4798,1 53858U 22114AS  23193.11039038  .00004134  00000-0  27757-3 0  9995,2 53858  53.2179 325.9029 0000982  91.7528 268.3576 15.08855045 45893,6917.834,95.437,540.379,539.02,0.0
53858.0,STARLINK-4798,PAYLOAD,2023-07-12 09:00:31,15.08844732,0.0001694,53.2175,324.7155,97.2411,262.8774,0.00018253,2.618e-05,0.0,0 STARLINK-4798,1 53858U 22114AS  23193.37535928  .00002618  00000-0  18253-3 0  9998,2 53858  53.2175 324.7155 0001694  97.2411 262.8774 15.08844732 45934,6917.866,95.437,540.903,538.559,0.0
53858.0,STARLINK-4798,PAYLOAD,2023-07-13 15:12:50,15.08841817,9.7e-05,53.2173,319.0636,88.5055,271.6048,0.00014281,1.986e-05,0.0,0 STARLINK-4798,1 53858U 22114AS  23194.63392071  .00001986  00000-0  14281-3 0  9992,2 53858  53.2173 319.0636 0000970  88.5055 271.6048 15.08841817 46121,6917.875,95.437,540.411,539.069,0.0
53858.0,STARLINK-4798,PAYLOAD,2023-07-14 16:39:00,15.0885566,0.0001014,53.2176,314.308,92.6199,267.4909,0.00063694,9.868e-05,0.0,0 STARLINK-4798,1 53858U 22114AS  23195.69375945  .00009868  00000-0  63694-3 0  9999,2 53858  53.2176 314.3080 0001014  92.6199 267.4909 15.08855660 46287,6917.833,95.437,540.399,538.996,0.0
53858.0,STARLINK-4798,PAYLOAD,2023-07-15 10:08:15,15.08845413,9.25e-05,53.2169,311.0353,81.3847,278.725,0.00025579,3.786e-05,0.0,0 STARLINK-4798,1 53858U 22114AS  23196.42240187  .00003786  00000-0  25579-3 0  9993,2 53858  53.2169 311.0353 0000925  81.3847 278.7250 15.08845413 46392,6917.864,95.437,540.369,539.089,0.0
53858.0,STARLINK-4798,PAYLOAD,2023-07-16 16:20:35,15.08839598,0.0001308,53.2181,305.3836,96.0492,264.0649,2.4979e-05,1.1e-06,0.0,0 STARLINK-4798,1 53858U 22114AS  23197.68096612  .00000110  00000-0  24979-4 0  9996,2 53858  53.2181 305.3836 0001308  96.0492 264.0649 15.08839598 46581,6917.882,95.438,540.651,538.842,0.0
53858.0,STARLINK-4798,PAYLOAD,2023-07-17 19:22:08,15.08853327,9.77e-05,53.2159,300.3297,84.2976,275.8127,0.00038226,5.803e-05,0.0,0 STARLINK-4798,1 53858U 22114AS  23198.80704170  .00005803  00000-0  38226-3 0  9999,2 53858  53.2159 300.3297 0000977  84.2976 275.8127 15.08853327 46755,6917.84,95.437,540.381,539.029,0.0
53858.0,STARLINK-4798,PAYLOAD,2023-07-18 11:16:00,15.08843905,0.000115,53.2165,297.3604,82.8355,277.2768,0.0001809,2.593e-05,0.0,0 STARLINK-4798,1 53858U 22114AS  23199.46944677  .00002593  00000-0  18090-3 0  9990,2 53858  53.2165 297.3604 0001150  82.8355 277.2768 15.08843905 46857,6917.868,95.437,540.529,538.938,0.0
53858.0,STARLINK-4798,PAYLOAD,2023-07-19 09:31:24,15.08838275,0.0001403,53.2171,293.1918,122.9345,237.1782,-3.0996e-05,-7.81e-06,0.0,0 STARLINK-4798,1 53858U 22114AS  23200.39681006 -.00000781  00000-0 -30996-4 0  9998,2 53858  53.2171 293.1918 0001403 122.9345 237.1782 15.08838275 46992,6917.886,95.438,540.721,538.78,0.0
53858.0,STARLINK-4798,PAYLOAD,2023-07-20 17:19:06,15.08854169,0.0001177,53.2168,287.2467,105.7624,254.3498,0.00042358,6.462e-05,0.0,0 STARLINK-4798,1 53858U 22114AS  23201.72160736  .00006462  00000-0  42358-3 0  9992,2 53858  53.2168 287.2467 0001177 105.7624 254.3498 15.08854169 47196,6917.837,95.437,540.516,538.888,0.0
53858.0,STARLINK-4798,PAYLOAD,2023-07-21 06:02:12,15.08850095,0.0001777,53.2163,284.8668,107.6569,252.4617,0.00034091,5.143e-05,0.0,0 STARLINK-4798,1 53858U 22114AS  23202.25152943  .00005143  00000-0  34091-3 0  9992,2 53858  53.2163 284.8668 0001777 107.6569 252.4617 15.08850095 47277,6917.85,95.437,540.944,538.485,0.0
53858.0,STARLINK-4798,PAYLOAD,2023-07-24 13:31:29,15.08838956,0.0001019,53.2167,270.0002,84.6889,275.4219,0.00010266,1.346e-05,0.0,0 STARLINK-4798,1 53858U 22114AS  23205.56353241  .00001346  00000-0  10266-3 0  9992,2 53858  53.2167 270.0002 0001019  84.6889 275.4219 15.08838956 48319,6917.884,95.438,540.454,539.044,0.0
53858.0,STARLINK-4798,PAYLOAD,2023-07-25 11:46:53,15.08840261,0.000109,53.2154,265.8377,76.3465,283.7649,7.9639e-05,9.8e-06,0.0,0 STARLINK-4798,1 53858U 22114AS  23206.49089480  .00000980  00000-0  79639-4 0  9999,2 53858  53.2154 265.8377 0001090  76.3465 283.7649 15.08840261 48455,6917.88,95.438,540.499,538.991,0.0
53858.0,STARLINK-4798,PAYLOAD,2023-07-26 06:51:31,15.08832327,8.88e-05,53.2145,262.268,91.6962,268.4132,0.00041103,6.258e-05,0.0,0 STARLINK-4798,1 53858U 22114AS  23207.28577772  .00006258  00000-0  41103-3 0  9991,2 53858  53.2145 262.2680 0000888  91.6962 268.4132 15.08832327 48573,6917.904,95.438,540.383,539.155,0.0
53858.0,STARLINK-4798,PAYLOAD,2023-07-26 13:13:03,15.08854177,0.0001097,53.2146,261.0792,73.7568,286.3544,5.1135e-05,5.26e-06,0.0,0 STARLINK-4798,1 53858U 22114AS  23207.55072946  .00000526  00000-0  51135-4 0  9993,2 53858  53.2146 261.0792 0001097  73.7568 286.3544 15.08854177 48079,6917.837,95.437,540.461,538.943,0.0
53858.0,STARLINK-4798,PAYLOAD,2023-07-26 21:09:58,15.08849738,9.32e-05,53.2144,259.5918,79.4619,280.6478,0.00015721,2.216e-05,0.0,0 STARLINK-4798,1 53858U 22114AS  23207.88193005  .00002216  00000-0  15721-3 0  9997,2 53858  53.2144 259.5918 0000932  79.4619 280.6478 15.08849738 48661,6917.851,95.437,540.36,539.071,0.0
53858.0,STARLINK-4798,PAYLOAD,2023-07-27 09:53:03,15.08849942,0.0001113,53.2149,257.2134,85.5231,274.5888,0.00013893,1.925e-05,0.0,0 STARLINK-4798,1 53858U 22114AS  23208.41184907  .00001925  00000-0  13893-3 0  9992,2 53858  53.2149 257.2134 0001113  85.5231 274.5888 15.08849942 48205,6917.85,95.437,540.485,538.945,0.0
53858.0,STARLINK-4798,PAYLOAD,2023-07-27 14:39:13,15.08851824,0.0001068,53.2146,256.3218,78.2168,281.8944,0.00023639,3.478e-05,0.0,0 STARLINK-4798,1 53858U 22114AS  23208.61056729  .00003478  00000-0  23639-3 0  9998,2 53858  53.2146 256.3218 0001068  78.2168 281.8944 15.08851824 48770,6917.844,95.437,540.448,538.97,0.0
53858.0,STARLINK-4798,PAYLOAD,2023-07-28 06:33:05,15.08833375,0.000115,53.2146,253.3467,99.6005,260.5117,-0.00011492,-2.116e-05,0.0,0 STARLINK-4798,1 53858U 22114AS  23209.27297638 -.00002116  00000-0 -11492-3 0  9991,2 53858  53.2146 253.3467 0001150  99.6005 260.5117 15.08833375 48331,6917.901,95.438,540.561,538.97,0.0
53858.0,STARLINK-4798,PAYLOAD,2023-07-28 12:54:37,15.08833187,0.0001046,53.2147,252.1578,93.2174,266.8938,-9.3583e-05,-1.777e-05,0.0,0 STARLINK-4798,1 53858U 22114AS  23209.53793788 -.00001777  00000-0 -93583-4 0  9991,2 53858  53.2147 252.1578 0001046  93.2174 266.8938 15.08833187 48918,6917.901,95.438,540.49,539.043,0.0
